{"type": "FeatureCollection", "features": [ {"type": "Feature", "properties": {"norad_id": 66778, "name": "TRANSPORTER-15DS", "group": "last-30-days", "lat": -50.53555929759589, "lon": -116.47836971471808, "alt_km": 524.773312231001, "timestamp": "2025-12-27T03:58:42.931977+00:00", "meta": {"OBJECT_NAME": "TRANSPORTER-15DS", "OBJECT_ID": "2025-276DS", "EPOCH": "2025-12-18T19:26:21.991200", "MEAN_MOTION": 15.16535337, "ECCENTRICITY": 0.00032319, "INCLINATION": 97.4427, "RA_OF_ASC_NODE": 64.4586, "ARG_OF_PERICENTER": 41.3734, "MEAN_ANOMALY": 318.7744, "EPHEMERIS_TYPE": 0, "CLASSIFICATION_TYPE": "U", "NORAD_CAT_ID": 66778, "ELEMENT_SET_NO": 999, "REV_AT_EPOCH": 304, "BSTAR": 0.00025483693, "MEAN_MOTION_DOT": 4.904e-05, "MEAN_MOTION_DDOT": 0}, "tle": {"line1": "1 66778U 25276DS  25352.80997675  .00004904  00000+0  25484-3 0  9996", "line2": "2 66778  97.4427  64.4586 0003231  41.3734 318.7744 15.16535337  3043"}}, "geometry": {"type": "Point", "coordinates": [-116.47836971471808, -50.53555929759589]}}, {"type": "Feature", "properties": {"norad_id": 66791, "name": "STARLINK-35867", "group": "last-30-days", "lat": -11.344763073561698, "lon": 153.62333548493137, "alt_km": 444.3312207128092, "timestamp": "2025-12-27T03:58:42.931986+00:00", "meta": {"OBJECT_NAME": "STARLINK-35867", "OBJECT_ID": "2025-278A", "EPOCH": "2025-12-26T20:00:01.999008", "MEAN_MOTION": 15.40668766, "ECCENTRICITY": 0.0001524, "INCLINATION": 43.0001, "RA_OF_ASC_NODE": 167.9727, "ARG_OF_PERICENTER": 302.0789, "MEAN_ANOMALY": 355.2804, "EPHEMERIS_TYPE": 0, "CLASSIFICATION_TYPE": "U", "NORAD_CAT_ID": 66791, "ELEMENT_SET_NO": 999, "REV_AT_EPOCH": 522, "BSTAR": 0.0014973, "MEAN_MOTION_DOT": 0.00062693, "MEAN_MOTION_DDOT": 0}, "tle": {"line1": "1 66791U 25278A   25360.83335647  .00062693  00000+0  14973-2 0  9999", "line2": "2 66791  43.0001 167.9727 0001524 302.0789 355.2804 15.40668766  5224"}}, "geometry": {"type": "Point", "coordinates": [153.62333548493137, -11.344763073561698]}}, {"type": "Feature", "properties": {"norad_id": 66792, "name": "STARLINK-35990", "group": "last-30-days", "lat": 37.800946311559635, "lon": -137.78929770798672, "alt_km": 410.0327692365554, "timestamp": "2025-12-27T03:58:42.931997+00:00", "meta": {"OBJECT_NAME": "STARLINK-35990", "OBJECT_ID": "2025-278B", "EPOCH": "2025-12-26T20:00:01.999008", "MEAN_MOTION": 15.50573313, "ECCENTRICITY": 0.0001513, "INCLINATION": 43, "RA_OF_ASC_NODE": 167.8055, "ARG_OF_PERICENTER": 265.4043, "MEAN_ANOMALY": 100.8677, "EPHEMERIS_TYPE": 0, "CLASSIFICATION_TYPE": "U", "NORAD_CAT_ID": 66792, "ELEMENT_SET_NO": 999, "REV_AT_EPOCH": 522, "BSTAR": -0.00056356, "MEAN_MOTION_DOT": -0.00033256, "MEAN_MOTION_DDOT": 0}, "tle": {"line1": "1 66792U 25278B   25360.83335647 -.00033256  00000+0 -56356-3 0  9997", "line2": "2 66792  43.0000 167.8055 0001513 265.4043 100.8677 15.50573313  5226"}}, "geometry": {"type": "Point", "coordinates": [-137.78929770798672, 37.800946311559635]}}, {"type": "Feature", "properties": {"norad_id": 66793, "name": "STARLINK-36051", "group": "last-30-days", "lat": 39.16465474420729, "lon": -133.20702968442973, "alt_km": 409.793501828688, "timestamp": "2025-12-27T03:58:42.932011+00:00", "meta": {"OBJECT_NAME": "STARLINK-36051", "OBJECT_ID": "2025-278C", "EPOCH": "2025-12-26T20:00:01.999008", "MEAN_MOTION": 15.50580413, "ECCENTRICITY": 0.0001483, "INCLINATION": 43, "RA_OF_ASC_NODE": 167.796, "ARG_OF_PERICENTER": 271.2947, "MEAN_ANOMALY": 98.8132, "EPHEMERIS_TYPE": 0, "CLASSIFICATION_TYPE": "U", "NORAD_CAT_ID": 66793, "ELEMENT_SET_NO": 999, "REV_AT_EPOCH": 512, "BSTAR": -0.00082001, "MEAN_MOTION_DOT": -0.00048155, "MEAN_MOTION_DDOT": 0}, "tle": {"line1": "1 66793U 25278C   25360.83335647 -.00048155  00000+0 -82001-3 0  9998", "line2": "2 66793  43.0000 167.7960 0001483 271.2947  98.8132 15.50580413  5125"}}, "geometry": {"type": "Point", "coordinates": [-133.20702968442973, 39.16465474420729]}}, {"type": "Feature", "properties": {"norad_id": 66794, "name": "STARLINK-36062", "group": "last-30-days", "lat": 37.339599577899854, "lon": -139.18429911474715, "alt_km": 418.22136854287237, "timestamp": "2025-12-27T03:58:42.932020+00:00", "meta": {"OBJECT_NAME": "STARLINK-36062", "OBJECT_ID": "2025-278D", "EPOCH": "2025-12-26T20:00:01.999008", "MEAN_MOTION": 15.49275962, "ECCENTRICITY": 0.0001404, "INCLINATION": 43.0002, "RA_OF_ASC_NODE": 167.802, "ARG_OF_PERICENTER": 261.5066, "MEAN_ANOMALY": 106.011, "EPHEMERIS_TYPE": 0, "CLASSIFICATION_TYPE": "U", "NORAD_CAT_ID": 66794, "ELEMENT_SET_NO": 999, "REV_AT_EPOCH": 522, "BSTAR": -0.041038, "MEAN_MOTION_DOT": -0.02046994, "MEAN_MOTION_DDOT": 0}, "tle": {"line1": "1 66794U 25278D   25360.83335647 -.02046994  00000+0 -41038-1 0  9993", "line2": "2 66794  43.0002 167.8020 0001404 261.5066 106.0110 15.49275962  5220"}}, "geometry": {"type": "Point", "coordinates": [-139.18429911474715, 37.339599577899854]}}, {"type": "Feature", "properties": {"norad_id": 66795, "name": "STARLINK-36047", "group": "last-30-days", "lat": 21.87807218411649, "lon": -168.53824790877533, "alt_km": 440.52461629137633, "timestamp": "2025-12-27T03:58:42.932029+00:00", "meta": {"OBJECT_NAME": "STARLINK-36047", "OBJECT_ID": "2025-278E", "EPOCH": "2025-12-26T20:00:01.999008", "MEAN_MOTION": 15.42678492, "ECCENTRICITY": 0.0001356, "INCLINATION": 43.0001, "RA_OF_ASC_NODE": 167.8552, "ARG_OF_PERICENTER": 257.1094, "MEAN_ANOMALY": 88.7923, "EPHEMERIS_TYPE": 0, "CLASSIFICATION_TYPE": "U", "NORAD_CAT_ID": 66795, "ELEMENT_SET_NO": 999, "REV_AT_EPOCH": 512, "BSTAR": -0.059759, "MEAN_MOTION_DOT": -0.02373897, "MEAN_MOTION_DDOT": 0}, "tle": {"line1": "1 66795U 25278E   25360.83335647 -.02373897  00000+0 -59759-1 0  9998", "line2": "2 66795  43.0001 167.8552 0001356 257.1094  88.7923 15.42678492  5123"}}, "geometry": {"type": "Point", "coordinates": [-168.53824790877533, 21.87807218411649]}}, {"type": "Feature", "properties": {"norad_id": 66796, "name": "STARLINK-35964", "group": "last-30-days", "lat": -42.71026760408021, "lon": 80.34704362809387, "alt_km": 327.0252820015603, "timestamp": "2025-12-27T03:58:42.932038+00:00", "meta": {"OBJECT_NAME": "STARLINK-35964", "OBJECT_ID": "2025-278F", "EPOCH": "2025-12-26T11:39:39.746880", "MEAN_MOTION": 15.81140199, "ECCENTRICITY": 0.0002717, "INCLINATION": 42.9916, "RA_OF_ASC_NODE": 166.7893, "ARG_OF_PERICENTER": 253.8891, "MEAN_ANOMALY": 106.1681, "EPHEMERIS_TYPE": 0, "CLASSIFICATION_TYPE": "U", "NORAD_CAT_ID": 66796, "ELEMENT_SET_NO": 999, "REV_AT_EPOCH": 402, "BSTAR": 0.0023432, "MEAN_MOTION_DOT": 0.00501754, "MEAN_MOTION_DDOT": 0}, "tle": {"line1": "1 66796U 25278F   25360.48587670  .00501754  00000+0  23432-2 0  9996", "line2": "2 66796  42.9916 166.7893 0002717 253.8891 106.1681 15.81140199  4028"}}, "geometry": {"type": "Point", "coordinates": [80.34704362809387, -42.71026760408021]}}, {"type": "Feature", "properties": {"norad_id": 66797, "name": "STARLINK-36099", "group": "last-30-days", "lat": 40.852070887122984, "lon": -126.0370717196629, "alt_km": 409.6218192754495, "timestamp": "2025-12-27T03:58:42.932047+00:00", "meta": {"OBJECT_NAME": "STARLINK-36099", "OBJECT_ID": "2025-278G", "EPOCH": "2025-12-26T20:00:01.999008", "MEAN_MOTION": 15.50573969, "ECCENTRICITY": 0.0001527, "INCLINATION": 43.0001, "RA_OF_ASC_NODE": 167.7816, "ARG_OF_PERICENTER": 266.3069, "MEAN_ANOMALY": 109.5532, "EPHEMERIS_TYPE": 0, "CLASSIFICATION_TYPE": "U", "NORAD_CAT_ID": 66797, "ELEMENT_SET_NO": 999, "REV_AT_EPOCH": 528, "BSTAR": -0.00062712, "MEAN_MOTION_DOT": -0.00036952, "MEAN_MOTION_DDOT": 0}, "tle": {"line1": "1 66797U 25278G   25360.83335647 -.00036952  00000+0 -62712-3 0  9991", "line2": "2 66797  43.0001 167.7816 0001527 266.3069 109.5532 15.50573969  5288"}}, "geometry": {"type": "Point", "coordinates": [-126.0370717196629, 40.852070887122984]}}, {"type": "Feature", "properties": {"norad_id": 66798, "name": "STARLINK-36041", "group": "last-30-days", "lat": 41.31288385588565, "lon": -123.57208932150661, "alt_km": 409.55904918201577, "timestamp": "2025-12-27T03:58:42.932057+00:00", "meta": {"OBJECT_NAME": "STARLINK-36041", "OBJECT_ID": "2025-278H", "EPOCH": "2025-12-26T20:00:01.999008", "MEAN_MOTION": 15.50577052, "ECCENTRICITY": 0.0001532, "INCLINATION": 43, "RA_OF_ASC_NODE": 167.7765, "ARG_OF_PERICENTER": 266.3625, "MEAN_ANOMALY": 111.411, "EPHEMERIS_TYPE": 0, "CLASSIFICATION_TYPE": "U", "NORAD_CAT_ID": 66798, "ELEMENT_SET_NO": 999, "REV_AT_EPOCH": 506, "BSTAR": -0.00067823, "MEAN_MOTION_DOT": -0.00039925, "MEAN_MOTION_DDOT": 0}, "tle": {"line1": "1 66798U 25278H   25360.83335647 -.00039925  00000+0 -67823-3 0  9993", "line2": "2 66798  43.0000 167.7765 0001532 266.3625 111.4110 15.50577052  5062"}}, "geometry": {"type": "Point", "coordinates": [-123.57208932150661, 41.31288385588565]}}, {"type": "Feature", "properties": {"norad_id": 66799, "name": "STARLINK-36044", "group": "last-30-days", "lat": 41.72083718834412, "lon": -121.07018809939636, "alt_km": 409.42496376611325, "timestamp": "2025-12-27T03:58:42.932068+00:00", "meta": {"OBJECT_NAME": "STARLINK-36044", "OBJECT_ID": "2025-278J", "EPOCH": "2025-12-26T20:00:01.999008", "MEAN_MOTION": 15.50575912, "ECCENTRICITY": 0.0001436, "INCLINATION": 43.0001, "RA_OF_ASC_NODE": 167.7721, "ARG_OF_PERICENTER": 269.5111, "MEAN_ANOMALY": 110.1802, "EPHEMERIS_TYPE": 0, "CLASSIFICATION_TYPE": "U", "NORAD_CAT_ID": 66799, "ELEMENT_SET_NO": 999, "REV_AT_EPOCH": 522, "BSTAR": -0.00062517, "MEAN_MOTION_DOT": -0.00036841, "MEAN_MOTION_DDOT": 0}, "tle": {"line1": "1 66799U 25278J   25360.83335647 -.00036841  00000+0 -62517-3 0  9993", "line2": "2 66799  43.0001 167.7721 0001436 269.5111 110.1802 15.50575912  5229"}}, "geometry": {"type": "Point", "coordinates": [-121.07018809939636, 41.72083718834412]}}]}